#dP2024  7  4  0  0  0.00000000      97 __u+U IGS20 FIT  IAC
## 2321 345600.00000000   900.00000000 60495 0.0000000000000
+  118   C06C07C08C09C10C11C12C13C14C16C19C20C21C22C23C24C25
+        C26C27C28C29C30C32C33C34C35C36C37C38C39C40C41C42C43
+        C44C45E02E03E04E05E07E08E09E10E11E12E13E14E15E18E19
+        E21E25E26E27E29E30E31E33E34E36G02G03G04G05G06G07G08
+        G09G10G11G12G13G14G15G16G17G18G19G20G21G22G23G24G25
+        G26G27G28G29G30G31G32J02J03J04R01R02R03R04R05R07R08
+        R09R11R12R13R14R15R16R17R18R19R20R21R22R24R25R26  0
++         7  7  7  7  7  7  7  7 10  7  5  6  6  5  5  6  5
++         5  6  5  5  6  6  6  6  5  5  6  6  6  6  5  6  6
++         6  6  4  4  5  4  4  4  4  4  4  4  4  4  4  4  4
++         4  4  4  4  6  4  4  4  4  4  3  3  3  3  3  3  4
++         3  3  4  3  4  3  4  3  3  3  3  3  3  3  3  3  3
++         3  3  3  3  3  3  3 11 11 11  7  7  7  6  6  6  6
++         6  6  6  7  7  6  6  6  7  8  8  6  6  6  7  7  0
%c M  cc GPS ccc cccc cccc cccc cccc ccccc ccccc ccccc ccccc
%c cc cc ccc ccc cccc cccc cccc cccc ccccc ccccc ccccc ccccc
%f  1.2500000  1.025000000  0.00000000000  0.000000000000000
%f  0.0000000  0.000000000  0.00000000000  0.000000000000000
%i    0    0    0    0      0      0      0      0         0
%i    0    0    0    0      0      0      0      0         0
/* INFORMATION & ANALYSIS CENTER (IAC)            FINAL DATA
/* S/V CLOCKS ARE ALIGNED TO GNSS TIME                      
/* G:C1WC2W R:C1PC2P E:C1XC5X C:C2IC6I J:C1CC2S             
/* PCV:IGS20_2317 OL/AL:FES2004  NONE     YN ORB:CoN CLK:CoN
*  2024 07 04 22 45  0.00000000
PC06  -6135.046552  39306.341450 -13431.574029    562.591503
PC07  -6687.727491  26972.321034  31820.942135   -578.934813
PC08 -19364.886385  30271.418139 -22260.666661   -280.515432
PC09   -259.745286  41673.908934  -3019.264716     14.970801
PC10   1107.834324  28624.809347  31381.720744    -60.855802
PC11  -7380.850329 -25950.944251  -7032.840628    646.345380
PC12   7206.276217 -16906.781344 -20963.098609   -261.670628
PC13 -13502.061314  30766.672830 -25501.212662    438.685156
PC14  -4433.211050 -15535.903120  22751.672140    911.302847
PC16  -6166.518803  38979.793410 -14063.583883   -634.407486
PC19  14987.214265  13504.895743 -19277.936629   -916.735460
PC20  -4659.942487  15230.184649 -22907.087248   -649.142385
PC21  23514.454476  -7791.214358  12892.258726   -961.660182
PC22  27291.877916   3981.034481  -4379.172145     50.210527
PC23 -17151.849635  -2409.687108 -21869.084743   -794.577760
PC24  10785.482457 -25091.318334  -5682.443794    888.512733
PC25  -4933.507502 -19330.483352 -19511.596713    442.949683
PC26  19343.556539 -16527.244999  11412.952931   -315.184203
PC27 -13497.666114   8722.372843  22791.300696    336.254058
PC28 -19127.262094  -8816.821488  18306.373262    258.845295
PC29  14390.449218  23899.769871   -789.875621    303.860455
PC30   -104.241682  22721.839574  16179.462572   -122.233781
PC32 -23488.226119   7922.403738 -12786.910269   -664.450000
PC33 -14910.583937 -13477.196273  19345.430617   -960.397280
PC34  -1233.575901 -23516.577047 -15000.063164    470.085026
PC35  19551.605518   8449.723924 -18030.503055    321.339921
PC36   4637.636980  19339.642156  19607.619813    127.870921
PC37 -19728.073571  16083.087347 -11451.903701   -928.995653
PC38 -24343.559251  31547.664889 -13959.594498    165.268278
PC39  -8722.648422  35470.974863 -20762.248510     -9.020826
PC40 -11079.038470  20814.784199  34956.799226    -78.523710
PC41 -27025.930936  -4469.049924   5310.479838   -950.526319
PC42   6734.531288 -15027.967603  22571.968556   -450.424413
PC43 -13813.263045 -24256.596728   -168.258230     77.687879
PC44  13376.605566  -9186.101165 -22721.526326    523.342067
PC45  16879.562803   2792.111697  22047.173861   -101.069827
PE02 -24035.559161  15734.569222   7153.985786    140.741940
PE03 -14897.565190   9584.717940 -23713.675242   -124.767258
PE04  -4947.820976 -21073.166840  20193.922867   -437.213757
PE05 -25482.046025  -7269.891493 -13176.726122   4763.018667
PE07  21037.935385  20109.705432  -5445.761257   -129.361317
PE08   4117.791139  20717.419989 -20742.969107   -297.590676
PE09 -20975.054085 -20113.976688   5570.922473   -503.755831
PE10  -3684.352345 -27469.949731  10370.030264   -637.912266
PE11  -9846.014107 -20699.134096  18717.441894   2460.645417
PE12   2412.676036 -29475.775910   1404.153097  -1110.038585
PE13   9523.827977  21146.842083 -18392.835983    -22.742838
PE14   8785.544550 -16702.920898 -21960.833350    100.921024
PE15  -2752.648686  29458.646467   -833.618841   -112.830896
PE18   9802.968697  23072.281869  14426.080213    292.978149
PE19  16498.207924  -7780.764017  23322.141932    232.818229
PE21  27284.816674  -3637.603939  10894.490383   -603.623901
PE25 -27173.100842   3321.811949 -11249.158771      6.515588
PE26  16233.341423     10.682728 -24752.965069    502.931201
PE27  14665.918167  11115.346158  23189.059178   -392.052787
PE29 -14450.160724 -11343.830813 -23223.551048   -855.747766
PE30  -6549.858508  19157.410310  21589.087006   -473.255174
PE31   6438.383576 -19122.503887 -21648.653967    -28.371659
PE33  13405.720266 -19931.883287 -17294.988858     13.446204
PE34 -13181.186912  20396.064993  16921.847885   -120.775722
PE36 -16009.645944   -658.082969  24883.584600   -250.431790
PG02 -13966.829151  10220.951586  20538.309546   -405.268412
PG03 -22971.727327  13007.250979  -2417.433408    443.844000
PG04 -16654.983350   5127.385000 -20067.932469    397.085264
PG05  23184.737387  -2777.867184 -12917.071149   -178.631154
PG06   5569.968114  23307.916438 -11273.266481    180.705740
PG07  -5919.816839  24797.589172  -6001.763807    -76.881268
PG08 -23145.104231  -3604.502709  12804.436883    260.160666
PG09  -5238.746486  14627.348648 -21621.196774    260.419173
PG10  -3046.604076 -14792.716882  22023.212636    -58.114159
PG11  12609.494285  11982.608047 -20065.084578   -698.777346
PG12  24460.679237 -10280.560120   -313.831676   -519.614555
PG13  22044.881129  12986.174094   7360.693005    662.406120
PG14  -1236.052334  16868.109212  20469.633310    441.162677
PG15  23328.935013    818.506126  12336.508561    177.474989
PG16 -22122.077997  -2689.147222 -15111.344339   -245.778145
PG17   8023.064434  19877.832381  15995.989923    683.669658
PG18   6094.154294 -25055.618908  -5877.189261   -632.934754
PG19  15853.270099  20075.409951   7722.950838    505.820356
PG20  17530.242128   4148.372568 -19402.418344    373.110600
PG21 -15176.864757   3408.213645  21863.232424    111.074486
PG22   6794.832978  13866.014652  22017.868175    -35.636365
PG23   9709.538206 -17955.968184  16901.736906    266.125166
PG24  14621.332106  -8174.269670  20102.082782   -481.589966
PG25  18247.984536 -16896.002940  -9288.312396    498.166604
PG26 -12331.978607 -10885.474368 -21052.933643    125.717824
PG27 -23311.686192 -12784.902399   2994.308702    -30.279528
PG28  -5396.910142 -24455.325832  -8855.873619   -317.550886
PG29   9383.230669 -11719.115261 -21959.289162   -591.150035
PG30   1369.189026  26074.892203   4151.075603   -363.307899
PG31 -11287.882479 -16165.796830 -17827.148852   -226.994844
PG32 -11331.028678 -19438.867883  14482.299622   -613.726626
PJ02 -31611.776831  25541.045622  16264.687699     -0.474205
PJ03 -26599.827969  27125.878738  23531.345630     -1.030540
PJ04 -29190.174711  20742.223712 -17100.343453     50.487490
PR01 -22261.984322   1715.000193 -12320.400517     90.384785
PR02  -8452.565075   8730.248145 -22393.276358    -23.567416
PR03  10545.662392  11856.698277 -19906.735183    103.261432
PR04  23107.521212   8474.028098  -6650.958755    243.984952
PR05  23368.681130    625.661419  10193.027652    134.089293
PR07 -11302.586244 -11886.887212  19592.069124     85.978100
PR08 -23264.002065  -8275.157309   6524.750730     -5.587127
PR09  14145.432708 -20612.924808  -5264.838393    195.883426
PR11 -10397.955140  -4626.613194 -22811.580213     19.237399
PR12 -18819.090424  12116.311844 -12213.732421     42.075470
PR13 -15766.091967  19868.413570   2704.222277    -48.991530
PR14  -2034.295044  16491.269233  19362.641316     26.663308
PR15  11610.099646   3313.707928  22495.847284     78.195911
PR16  18707.851821 -12076.597000  12494.974250     27.064044
PR17   7557.428494  24389.496179     64.027968    101.732944
PR18  12123.763728  16284.591933 -15405.268468    150.324138
PR19  11124.296571   2090.145955 -22865.437208   -282.716152
PR20   2962.281339 -18735.917640 -17070.241218   -115.616524
PR21  -7162.208955 -24460.004684   -457.128384   -114.817775
PR22 -12154.527745 -15553.524763  16183.346937     93.557306
PR24  -2171.430757  19311.164734  16548.141673    -62.488807
PR25  -6735.028769 -24588.569730    261.122222    -94.702012
PR26 -22707.145538  -8600.817731   7794.231304     -4.781942
EOF
